IRIDIUM 112             
1 41925U 17003J   26006.34034917  .00000264  00000+0  87221-4 0  9992
2 41925  86.4001 155.9417 0001829  97.1980 262.9424 14.34216377470073
IRIDIUM 111             
1 41926U 17003K   26006.32766385  .00000324  00000+0  10877-3 0  9991
2 41926  86.4002 156.0143 0002065  96.9735 263.1696 14.34215962470052
IRIDIUM 113             
1 42803U 17039A   26006.30762978  .00000039  00000+0  67456-5 0  9997
2 42803  86.3954  29.8218 0002083  96.0471 264.0963 14.34217655447984
IRIDIUM 123             
1 42804U 17039B   26006.20957223  .00000043  00000+0  83050-5 0  9999
2 42804  86.3942  61.3467 0002461  99.6624 260.4850 14.34217426446731
IRIDIUM 120             
1 42805U 17039C   26006.30128743  .00000026  00000+0  22070-5 0  9994
2 42805  86.3945  29.6278 0002349  85.8401 274.3063 14.34217598447974
IRIDIUM 115             
1 42806U 17039D   26006.30039873  .00000458  00000+0  13012-3 0  9993
2 42806  86.4479  29.7347 0002723  91.8479 268.3034 14.43280264450913
IRIDIUM 118             
1 42807U 17039E   26006.17151560  .00000032  00000+0  44639-5 0  9996
2 42807  86.3943  61.3616 0002079  98.2904 261.8527 14.34217721446725
IRIDIUM 117             
1 42808U 17039F   26006.19054278  .00000282  00000+0  93737-4 0  9996
2 42808  86.3936  61.3128 0002324  99.1287 261.0172 14.34216052446750
